ONEWEB-0207             
1 48242U 21031AJ  25216.68044946  .00000212  00000+0  53837-3 0  9997
2 48242  87.9074 352.6694 0001761 104.7965 255.3360 13.14503002206718
ONEWEB-0208             
1 48243U 21031AK  25216.66219443 -.00000025  00000+0 -10132-3 0  9997
2 48243  87.9071 352.6878 0001672  93.0142 267.1179 13.14503519206721
ONEWEB-0200             
1 48244U 21031AL  25216.77795705 -.00000252  00000+0 -71545-3 0  9997
2 48244  87.9078 352.6566 0001720  95.4007 264.7319 13.14501338206662
ONEWEB-0217             
1 48245U 21031AM  25216.79382148 -.00000349  00000+0 -97625-3 0  9997
2 48245  87.9070 352.6373 0001623  89.6524 270.4792 13.14503058206617
ONEWEB-0211             
1 48767U 21045A   25216.55472051 -.00000061  00000+0 -19380-3 0  9991
2 48767  87.9085 322.2859 0001979  89.2757 270.8600 13.16083162202790
ONEWEB-0223             
1 48768U 21045B   25216.71872025 -.00000083  00000+0 -25490-3 0  9998
2 48768  87.9073 322.3026 0002115  85.9956 274.1416 13.15547832202792
ONEWEB-0230             
1 48769U 21045C   25216.69020976 -.00000019  00000+0 -83814-4 0  9990
2 48769  87.9069 322.3437 0002046 101.4518 258.6842 13.15548585203051
ONEWEB-0237             
1 48770U 21045D   25216.67911281  .00000113  00000+0  26711-3 0  9993
2 48770  87.9094 322.3330 0002102  90.7432 269.3939 13.15548684202775
